{"type": "FeatureCollection", "features": [ {"type": "Feature", "properties": {"norad_id": 30252, "name": "FENGYUN 1C DEB", "group": "fengyun-1c-debris", "lat": 81.24359955794444, "lon": -91.47614323515563, "alt_km": 895.64581073526, "timestamp": "2025-12-11T20:41:15.355899+00:00", "meta": {"OBJECT_NAME": "FENGYUN 1C DEB", "OBJECT_ID": "1999-025XM", "EPOCH": "2025-12-11T12:28:10.606080", "MEAN_MOTION": 14.09707802, "ECCENTRICITY": 0.00659007, "INCLINATION": 98.7434, "RA_OF_ASC_NODE": 0.5924, "ARG_OF_PERICENTER": 245.1118, "MEAN_ANOMALY": 268.8125, "EPHEMERIS_TYPE": 0, "CLASSIFICATION_TYPE": "U", "NORAD_CAT_ID": 30252, "ELEMENT_SET_NO": 999, "REV_AT_EPOCH": 96948, "BSTAR": 0.00071696676, "MEAN_MOTION_DOT": 1.24e-05, "MEAN_MOTION_DDOT": 0}, "tle": {"line1": "1 30252U 99025XM  25345.51956720  .00001240  00000+0  71697-3 0  9990", "line2": "2 30252  98.7434   0.5924 0065900 245.1118 268.8125 14.09707802969487"}}, "geometry": {"type": "Point", "coordinates": [-91.47614323515563, 81.24359955794444]}}, {"type": "Feature", "properties": {"norad_id": 30253, "name": "FENGYUN 1C DEB", "group": "fengyun-1c-debris", "lat": -2.8602813638084688, "lon": 74.43859203109706, "alt_km": 876.8967347956086, "timestamp": "2025-12-11T20:41:15.355909+00:00", "meta": {"OBJECT_NAME": "FENGYUN 1C DEB", "OBJECT_ID": "1999-025XN", "EPOCH": "2025-12-11T05:12:58.892256", "MEAN_MOTION": 13.73172236, "ECCENTRICITY": 0.02215703, "INCLINATION": 98.7517, "RA_OF_ASC_NODE": 73.4076, "ARG_OF_PERICENTER": 45.3048, "MEAN_ANOMALY": 8.7457, "EPHEMERIS_TYPE": 0, "CLASSIFICATION_TYPE": "U", "NORAD_CAT_ID": 30253, "ELEMENT_SET_NO": 999, "REV_AT_EPOCH": 93993, "BSTAR": 0.0023097048, "MEAN_MOTION_DOT": 2.513e-05, "MEAN_MOTION_DDOT": 0}, "tle": {"line1": "1 30253U 99025XN  25345.21734829  .00002513  00000+0  23097-2 0  9996", "line2": "2 30253  98.7517  73.4076 0221570  45.3048   8.7457 13.73172236939939"}}, "geometry": {"type": "Point", "coordinates": [74.43859203109706, -2.8602813638084688]}}, {"type": "Feature", "properties": {"norad_id": 30257, "name": "FENGYUN 1C DEB", "group": "fengyun-1c-debris", "lat": 81.24313352586788, "lon": -106.72991299458342, "alt_km": 810.4981855536225, "timestamp": "2025-12-11T20:41:15.355919+00:00", "meta": {"OBJECT_NAME": "FENGYUN 1C DEB", "OBJECT_ID": "1999-025XS", "EPOCH": "2025-12-10T17:50:14.803296", "MEAN_MOTION": 14.09722287, "ECCENTRICITY": 0.00596839, "INCLINATION": 98.7496, "RA_OF_ASC_NODE": 343.3636, "ARG_OF_PERICENTER": 104.8014, "MEAN_ANOMALY": 70.9872, "EPHEMERIS_TYPE": 0, "CLASSIFICATION_TYPE": "U", "NORAD_CAT_ID": 30257, "ELEMENT_SET_NO": 999, "REV_AT_EPOCH": 97189, "BSTAR": 0.00024819774, "MEAN_MOTION_DOT": 4.01e-06, "MEAN_MOTION_DDOT": 0}, "tle": {"line1": "1 30257U 99025XS  25344.74322689  .00000401  00000+0  24820-3 0  9994", "line2": "2 30257  98.7496 343.3636 0059683 104.8014  70.9872 14.09722287971898"}}, "geometry": {"type": "Point", "coordinates": [-106.72991299458342, 81.24313352586788]}}, {"type": "Feature", "properties": {"norad_id": 30259, "name": "FENGYUN 1C DEB", "group": "fengyun-1c-debris", "lat": 7.141812198040366, "lon": -163.56611992765806, "alt_km": 737.6573728181993, "timestamp": "2025-12-11T20:41:15.355928+00:00", "meta": {"OBJECT_NAME": "FENGYUN 1C DEB", "OBJECT_ID": "1999-025XU", "EPOCH": "2025-12-11T12:39:39.411072", "MEAN_MOTION": 14.51497133, "ECCENTRICITY": 0.02420328, "INCLINATION": 98.7617, "RA_OF_ASC_NODE": 197.1923, "ARG_OF_PERICENTER": 271.9936, "MEAN_ANOMALY": 146.0008, "EPHEMERIS_TYPE": 0, "CLASSIFICATION_TYPE": "U", "NORAD_CAT_ID": 30259, "ELEMENT_SET_NO": 999, "REV_AT_EPOCH": 99457, "BSTAR": 0.00080704182, "MEAN_MOTION_DOT": 4.665e-05, "MEAN_MOTION_DDOT": 0}, "tle": {"line1": "1 30259U 99025XU  25345.52753948  .00004665  00000+0  80704-3 0  9998", "line2": "2 30259  98.7617 197.1923 0242032 271.9936 146.0008 14.51497133994572"}}, "geometry": {"type": "Point", "coordinates": [-163.56611992765806, 7.141812198040366]}}, {"type": "Feature", "properties": {"norad_id": 30263, "name": "FENGYUN 1C DEB", "group": "fengyun-1c-debris", "lat": -72.04885504539128, "lon": 130.11084355510255, "alt_km": 870.9415882711819, "timestamp": "2025-12-11T20:41:15.355938+00:00", "meta": {"OBJECT_NAME": "FENGYUN 1C DEB", "OBJECT_ID": "1999-025XY", "EPOCH": "2025-12-10T18:23:42.429120", "MEAN_MOTION": 14.01464793, "ECCENTRICITY": 0.01447836, "INCLINATION": 98.935, "RA_OF_ASC_NODE": 99.9869, "ARG_OF_PERICENTER": 5.7494, "MEAN_ANOMALY": 157.362, "EPHEMERIS_TYPE": 0, "CLASSIFICATION_TYPE": "U", "NORAD_CAT_ID": 30263, "ELEMENT_SET_NO": 999, "REV_AT_EPOCH": 95997, "BSTAR": 0.001369054, "MEAN_MOTION_DOT": 2.222e-05, "MEAN_MOTION_DDOT": 0}, "tle": {"line1": "1 30263U 99025XY  25344.76646330  .00002222  00000+0  13691-2 0  9991", "line2": "2 30263  98.9350  99.9869 0144783   5.7494 157.3620 14.01464793959978"}}, "geometry": {"type": "Point", "coordinates": [130.11084355510255, -72.04885504539128]}}, {"type": "Feature", "properties": {"norad_id": 30264, "name": "FENGYUN 1C DEB", "group": "fengyun-1c-debris", "lat": 78.67388690972761, "lon": -86.9519804138822, "alt_km": 935.638087395002, "timestamp": "2025-12-11T20:41:15.355948+00:00", "meta": {"OBJECT_NAME": "FENGYUN 1C DEB", "OBJECT_ID": "1999-025XZ", "EPOCH": "2025-12-11T10:05:53.916288", "MEAN_MOTION": 14.07630907, "ECCENTRICITY": 0.01069945, "INCLINATION": 98.97, "RA_OF_ASC_NODE": 40.5571, "ARG_OF_PERICENTER": 291.1114, "MEAN_ANOMALY": 90.8976, "EPHEMERIS_TYPE": 0, "CLASSIFICATION_TYPE": "U", "NORAD_CAT_ID": 30264, "ELEMENT_SET_NO": 999, "REV_AT_EPOCH": 96539, "BSTAR": 0.0018022989, "MEAN_MOTION_DOT": 3.163e-05, "MEAN_MOTION_DDOT": 0}, "tle": {"line1": "1 30264U 99025XZ  25345.42076292  .00003163  00000+0  18023-2 0  9999", "line2": "2 30264  98.9700  40.5571 0106994 291.1114  90.8976 14.07630907965398"}}, "geometry": {"type": "Point", "coordinates": [-86.9519804138822, 78.67388690972761]}}, {"type": "Feature", "properties": {"norad_id": 30265, "name": "FENGYUN 1C DEB", "group": "fengyun-1c-debris", "lat": -43.80904382197576, "lon": 103.3618640535437, "alt_km": 694.5176397218947, "timestamp": "2025-12-11T20:41:15.355958+00:00", "meta": {"OBJECT_NAME": "FENGYUN 1C DEB", "OBJECT_ID": "1999-025YA", "EPOCH": "2025-12-11T06:20:48.749568", "MEAN_MOTION": 14.58577235, "ECCENTRICITY": 0.00283337, "INCLINATION": 98.6649, "RA_OF_ASC_NODE": 94.3275, "ARG_OF_PERICENTER": 18.2728, "MEAN_ANOMALY": 41.9023, "EPHEMERIS_TYPE": 0, "CLASSIFICATION_TYPE": "U", "NORAD_CAT_ID": 30265, "ELEMENT_SET_NO": 999, "REV_AT_EPOCH": 98380, "BSTAR": 0.004751638, "MEAN_MOTION_DOT": 0.00022246, "MEAN_MOTION_DDOT": 0}, "tle": {"line1": "1 30265U 99025YA  25345.26445312  .00022246  00000+0  47516-2 0  9997", "line2": "2 30265  98.6649  94.3275 0028333  18.2728  41.9023 14.58577235983801"}}, "geometry": {"type": "Point", "coordinates": [103.3618640535437, -43.80904382197576]}}, {"type": "Feature", "properties": {"norad_id": 30266, "name": "FENGYUN 1C DEB", "group": "fengyun-1c-debris", "lat": 70.48262799714918, "lon": -103.24145606419266, "alt_km": 788.4459832210023, "timestamp": "2025-12-11T20:41:15.355967+00:00", "meta": {"OBJECT_NAME": "FENGYUN 1C DEB", "OBJECT_ID": "1999-025YB", "EPOCH": "2025-12-11T15:48:33.130656", "MEAN_MOTION": 14.15073347, "ECCENTRICITY": 0.00827478, "INCLINATION": 99.0427, "RA_OF_ASC_NODE": 49.8555, "ARG_OF_PERICENTER": 69.0912, "MEAN_ANOMALY": 82.733, "EPHEMERIS_TYPE": 0, "CLASSIFICATION_TYPE": "U", "NORAD_CAT_ID": 30266, "ELEMENT_SET_NO": 999, "REV_AT_EPOCH": 96774, "BSTAR": 0.0018555489, "MEAN_MOTION_DOT": 3.674e-05, "MEAN_MOTION_DDOT": 0}, "tle": {"line1": "1 30266U 99025YB  25345.65871679  .00003674  00000+0  18555-2 0  9995", "line2": "2 30266  99.0427  49.8555 0082747  69.0912  82.7330 14.15073347967742"}}, "geometry": {"type": "Point", "coordinates": [-103.24145606419266, 70.48262799714918]}}, {"type": "Feature", "properties": {"norad_id": 30267, "name": "FENGYUN 1C DEB", "group": "fengyun-1c-debris", "lat": -5.484478804046559, "lon": 57.87618771307143, "alt_km": 830.3838842834039, "timestamp": "2025-12-11T20:41:15.355977+00:00", "meta": {"OBJECT_NAME": "FENGYUN 1C DEB", "OBJECT_ID": "1999-025YC", "EPOCH": "2025-12-11T10:35:33.945504", "MEAN_MOTION": 14.23593453, "ECCENTRICITY": 0.00589325, "INCLINATION": 98.8494, "RA_OF_ASC_NODE": 56.5961, "ARG_OF_PERICENTER": 246.7834, "MEAN_ANOMALY": 112.713, "EPHEMERIS_TYPE": 0, "CLASSIFICATION_TYPE": "U", "NORAD_CAT_ID": 30267, "ELEMENT_SET_NO": 999, "REV_AT_EPOCH": 97276, "BSTAR": 0.0026804738, "MEAN_MOTION_DOT": 6.176e-05, "MEAN_MOTION_DDOT": 0}, "tle": {"line1": "1 30267U 99025YC  25345.44136511  .00006176  00000+0  26805-2 0  9999", "line2": "2 30267  98.8494  56.5961 0058932 246.7834 112.7130 14.23593453972760"}}, "geometry": {"type": "Point", "coordinates": [57.87618771307143, -5.484478804046559]}}, {"type": "Feature", "properties": {"norad_id": 30270, "name": "FENGYUN 1C DEB", "group": "fengyun-1c-debris", "lat": 21.539142737026488, "lon": -3.854579345269466, "alt_km": 858.8361265356871, "timestamp": "2025-12-11T20:41:15.355987+00:00", "meta": {"OBJECT_NAME": "FENGYUN 1C DEB", "OBJECT_ID": "1999-025YF", "EPOCH": "2025-12-11T12:38:12.173856", "MEAN_MOTION": 14.11270337, "ECCENTRICITY": 0.00073631, "INCLINATION": 98.7024, "RA_OF_ASC_NODE": 359.2861, "ARG_OF_PERICENTER": 162.5834, "MEAN_ANOMALY": 316.0354, "EPHEMERIS_TYPE": 0, "CLASSIFICATION_TYPE": "U", "NORAD_CAT_ID": 30270, "ELEMENT_SET_NO": 999, "REV_AT_EPOCH": 97344, "BSTAR": 0.00016783526, "MEAN_MOTION_DOT": 2.61e-06, "MEAN_MOTION_DDOT": 0}, "tle": {"line1": "1 30270U 99025YF  25345.52652979  .00000261  00000+0  16784-3 0  9998", "line2": "2 30270  98.7024 359.2861 0007363 162.5834 316.0354 14.11270337973444"}}, "geometry": {"type": "Point", "coordinates": [-3.854579345269466, 21.539142737026488]}}]}